DELTA 2 R/B(1)          
1 20453U 90008B   25355.27723001  .00036697  00000+0  57446-3 0  9992
2 20453  35.6080 325.3743 0110989 256.0139 102.8231 15.45866140913953
COSMOS 2058             
1 20465U 90010A   25355.36973334  .00004127  00000+0  24836-3 0  9994
2 20465  82.4701 124.5422 0009076 238.7091 121.3251 15.10549799930415
SL-14 R/B               
1 20466U 90010B   25355.44662967  .00000385  00000+0  43783-4 0  9996
2 20466  82.5020 340.8691 0019369 193.2345 166.8365 14.83478775916884
SL-14 R/B               
1 20511U 90018B   25355.59173153  .00000430  00000+0  51155-4 0  9998
2 20511  82.5217 296.0911 0016228 354.8140   5.2903 14.82055192911016
HST                     
1 20580U 90037B   25355.28223008  .00005080  00000+0  17197-3 0  9999
2 20580  28.4660 214.3403 0002157 343.7140  16.3385 15.28154679761308
SL-16 R/B               
1 20625U 90046B   25355.58246262 -.00000253  00000+0 -10620-3 0  9992
2 20625  70.9993 101.9517 0012065  57.7297 302.4993 14.14998449837347
COSMOS 2084             
1 20663U 90055A   25355.40471710  .00002033  00000+0  15527-3 0  9990
2 20663  62.7895 242.4678 0030308 175.8572 184.2785 15.05066080924537
SL-6 R/B(2)             
1 20666U 90055D   25355.54894650  .00001659  00000+0  13672-3 0  9992
2 20666  62.7811 159.4823 0013670 314.8470  45.1517 15.03110965926442
SL-8 R/B                
1 20775U 90078B   25355.41677743  .00014313  00000+0  44234-3 0  9995
2 20775  82.9055 321.5402 0370635 276.6895  79.2279 14.86247068797663
SL-8 R/B                
1 21088U 91006B   25355.61318383  .00000119  00000+0  10421-3 0  9999
2 21088  82.9418 228.1127 0021196 253.4229 171.0834 13.77491699753322
OKEAN-3                 
1 21397U 91039A   25355.59647884  .00002117  00000+0  15033-3 0  9990
2 21397  82.5173  52.4754 0013527 232.1029 127.8975 15.04172614853291
COSMOS 2151             
1 21422U 91042A   25355.56390442  .00001467  00000+0  11657-3 0  9990
2 21422  82.4963 158.9992 0011830 329.0326  31.0199 14.99717390851485
