CCSDS_OMM_VERS = 2.0
CREATION_DATE  = 
ORIGINATOR     = 

OBJECT_NAME    = DELTA 2 R/B(1)
OBJECT_ID      = 1990-008B
CENTER_NAME    = EARTH
REF_FRAME      = TEME
TIME_SYSTEM    = UTC
MEAN_ELEMENT_THEORY = SGP/SGP4

EPOCH          = 2025-12-21T06:39:12.672864
MEAN_MOTION    = 15.45866140
ECCENTRICITY   = .01109897
INCLINATION    = 35.6080
RA_OF_ASC_NODE = 325.3743
ARG_OF_PERICENTER = 256.0139
MEAN_ANOMALY   = 102.8231

EPHEMERIS_TYPE = 0
CLASSIFICATION_TYPE = U
NORAD_CAT_ID   = 20453
ELEMENT_SET_NO = 999
REV_AT_EPOCH   = 91395
BSTAR          = .5744643E-3
MEAN_MOTION_DOT = .36697E-3
MEAN_MOTION_DDOT = 0

CCSDS_OMM_VERS = 2.0
CREATION_DATE  = 
ORIGINATOR     = 

OBJECT_NAME    = COSMOS 2058
OBJECT_ID      = 1990-010A
CENTER_NAME    = EARTH
REF_FRAME      = TEME
TIME_SYSTEM    = UTC
MEAN_ELEMENT_THEORY = SGP/SGP4

EPOCH          = 2025-12-21T08:52:24.960576
MEAN_MOTION    = 15.10549799
ECCENTRICITY   = .00090768
INCLINATION    = 82.4701
RA_OF_ASC_NODE = 124.5422
ARG_OF_PERICENTER = 238.7091
MEAN_ANOMALY   = 121.3251

EPHEMERIS_TYPE = 0
CLASSIFICATION_TYPE = U
NORAD_CAT_ID   = 20465
ELEMENT_SET_NO = 999
REV_AT_EPOCH   = 93041
BSTAR          = .24836189E-3
MEAN_MOTION_DOT = .4127E-4
MEAN_MOTION_DDOT = 0

CCSDS_OMM_VERS = 2.0
CREATION_DATE  = 
ORIGINATOR     = 

OBJECT_NAME    = SL-14 R/B
OBJECT_ID      = 1990-010B
CENTER_NAME    = EARTH
REF_FRAME      = TEME
TIME_SYSTEM    = UTC
MEAN_ELEMENT_THEORY = SGP/SGP4

EPOCH          = 2025-12-21T10:43:08.803488
MEAN_MOTION    = 14.83478775
ECCENTRICITY   = .00193696
INCLINATION    = 82.5020
RA_OF_ASC_NODE = 340.8691
ARG_OF_PERICENTER = 193.2345
MEAN_ANOMALY   = 166.8365

EPHEMERIS_TYPE = 0
CLASSIFICATION_TYPE = U
NORAD_CAT_ID   = 20466
ELEMENT_SET_NO = 999
REV_AT_EPOCH   = 91688
BSTAR          = .43782646E-4
MEAN_MOTION_DOT = .385E-5
MEAN_MOTION_DDOT = 0

CCSDS_OMM_VERS = 2.0
CREATION_DATE  = 
ORIGINATOR     = 

OBJECT_NAME    = SL-14 R/B
OBJECT_ID      = 1990-018B
CENTER_NAME    = EARTH
REF_FRAME      = TEME
TIME_SYSTEM    = UTC
MEAN_ELEMENT_THEORY = SGP/SGP4

EPOCH          = 2025-12-21T14:12:05.604192
MEAN_MOTION    = 14.82055192
ECCENTRICITY   = .00162283
INCLINATION    = 82.5217
RA_OF_ASC_NODE = 296.0911
ARG_OF_PERICENTER = 354.8140
MEAN_ANOMALY   = 5.2903

EPHEMERIS_TYPE = 0
CLASSIFICATION_TYPE = U
NORAD_CAT_ID   = 20511
ELEMENT_SET_NO = 999
REV_AT_EPOCH   = 91101
BSTAR          = .51155006E-4
MEAN_MOTION_DOT = .43E-5
MEAN_MOTION_DDOT = 0

CCSDS_OMM_VERS = 2.0
CREATION_DATE  = 
ORIGINATOR     = 

OBJECT_NAME    = HST
OBJECT_ID      = 1990-037B
CENTER_NAME    = EARTH
REF_FRAME      = TEME
TIME_SYSTEM    = UTC
MEAN_ELEMENT_THEORY = SGP/SGP4

EPOCH          = 2025-12-21T06:46:24.678912
MEAN_MOTION    = 15.28154679
ECCENTRICITY   = .0002157
INCLINATION    = 28.4660
RA_OF_ASC_NODE = 214.3403
ARG_OF_PERICENTER = 343.7140
MEAN_ANOMALY   = 16.3385

EPHEMERIS_TYPE = 0
CLASSIFICATION_TYPE = U
NORAD_CAT_ID   = 20580
ELEMENT_SET_NO = 999
REV_AT_EPOCH   = 76130
BSTAR          = .17197E-3
MEAN_MOTION_DOT = .508E-4
MEAN_MOTION_DDOT = 0

CCSDS_OMM_VERS = 2.0
CREATION_DATE  = 
ORIGINATOR     = 

OBJECT_NAME    = SL-16 R/B
OBJECT_ID      = 1990-046B
CENTER_NAME    = EARTH
REF_FRAME      = TEME
TIME_SYSTEM    = UTC
MEAN_ELEMENT_THEORY = SGP/SGP4

EPOCH          = 2025-12-21T13:58:44.770368
MEAN_MOTION    = 14.14998449
ECCENTRICITY   = .00120659
INCLINATION    = 70.9993
RA_OF_ASC_NODE = 101.9517
ARG_OF_PERICENTER = 57.7297
MEAN_ANOMALY   = 302.4993

EPHEMERIS_TYPE = 0
CLASSIFICATION_TYPE = U
NORAD_CAT_ID   = 20625
ELEMENT_SET_NO = 999
REV_AT_EPOCH   = 83734
BSTAR          = -.10619626E-3
MEAN_MOTION_DOT = -.253E-5
MEAN_MOTION_DDOT = 0

CCSDS_OMM_VERS = 2.0
CREATION_DATE  = 
ORIGINATOR     = 

OBJECT_NAME    = COSMOS 2084
OBJECT_ID      = 1990-055A
CENTER_NAME    = EARTH
REF_FRAME      = TEME
TIME_SYSTEM    = UTC
MEAN_ELEMENT_THEORY = SGP/SGP4

EPOCH          = 2025-12-21T09:42:47.557440
MEAN_MOTION    = 15.05066080
ECCENTRICITY   = .00303088
INCLINATION    = 62.7895
RA_OF_ASC_NODE = 242.4678
ARG_OF_PERICENTER = 175.8572
MEAN_ANOMALY   = 184.2785

EPHEMERIS_TYPE = 0
CLASSIFICATION_TYPE = U
NORAD_CAT_ID   = 20663
ELEMENT_SET_NO = 999
REV_AT_EPOCH   = 92453
BSTAR          = .155274E-3
MEAN_MOTION_DOT = .2033E-4
MEAN_MOTION_DDOT = 0

CCSDS_OMM_VERS = 2.0
CREATION_DATE  = 
ORIGINATOR     = 

OBJECT_NAME    = SL-6 R/B(2)
OBJECT_ID      = 1990-055D
CENTER_NAME    = EARTH
REF_FRAME      = TEME
TIME_SYSTEM    = UTC
MEAN_ELEMENT_THEORY = SGP/SGP4

EPOCH          = 2025-12-21T13:10:28.977600
MEAN_MOTION    = 15.03110965
ECCENTRICITY   = .00136701
INCLINATION    = 62.7811
RA_OF_ASC_NODE = 159.4823
ARG_OF_PERICENTER = 314.8470
MEAN_ANOMALY   = 45.1517

EPHEMERIS_TYPE = 0
CLASSIFICATION_TYPE = U
NORAD_CAT_ID   = 20666
ELEMENT_SET_NO = 999
REV_AT_EPOCH   = 92644
BSTAR          = .1367169E-3
MEAN_MOTION_DOT = .1659E-4
MEAN_MOTION_DDOT = 0

CCSDS_OMM_VERS = 2.0
CREATION_DATE  = 
ORIGINATOR     = 

OBJECT_NAME    = SL-8 R/B
OBJECT_ID      = 1990-078B
CENTER_NAME    = EARTH
REF_FRAME      = TEME
TIME_SYSTEM    = UTC
MEAN_ELEMENT_THEORY = SGP/SGP4

EPOCH          = 2025-12-21T10:00:09.569952
MEAN_MOTION    = 14.86247068
ECCENTRICITY   = .03706359
INCLINATION    = 82.9055
RA_OF_ASC_NODE = 321.5402
ARG_OF_PERICENTER = 276.6895
MEAN_ANOMALY   = 79.2279

EPHEMERIS_TYPE = 0
CLASSIFICATION_TYPE = U
NORAD_CAT_ID   = 20775
ELEMENT_SET_NO = 999
REV_AT_EPOCH   = 79766
BSTAR          = .4423404E-3
MEAN_MOTION_DOT = .14313E-3
MEAN_MOTION_DDOT = 0

CCSDS_OMM_VERS = 2.0
CREATION_DATE  = 
ORIGINATOR     = 

OBJECT_NAME    = SL-8 R/B
OBJECT_ID      = 1991-006B
CENTER_NAME    = EARTH
REF_FRAME      = TEME
TIME_SYSTEM    = UTC
MEAN_ELEMENT_THEORY = SGP/SGP4

EPOCH          = 2025-12-21T14:42:59.082912
MEAN_MOTION    = 13.77491699
ECCENTRICITY   = .00211969
INCLINATION    = 82.9418
RA_OF_ASC_NODE = 228.1127
ARG_OF_PERICENTER = 253.4229
MEAN_ANOMALY   = 171.0834

EPHEMERIS_TYPE = 0
CLASSIFICATION_TYPE = U
NORAD_CAT_ID   = 21088
ELEMENT_SET_NO = 999
REV_AT_EPOCH   = 75332
BSTAR          = .104213E-3
MEAN_MOTION_DOT = .119E-5
MEAN_MOTION_DDOT = 0

CCSDS_OMM_VERS = 2.0
CREATION_DATE  = 
ORIGINATOR     = 

OBJECT_NAME    = OKEAN-3
OBJECT_ID      = 1991-039A
CENTER_NAME    = EARTH
REF_FRAME      = TEME
TIME_SYSTEM    = UTC
MEAN_ELEMENT_THEORY = SGP/SGP4

EPOCH          = 2025-12-21T14:18:55.771776
MEAN_MOTION    = 15.04172614
ECCENTRICITY   = .00135274
INCLINATION    = 82.5173
RA_OF_ASC_NODE = 52.4754
ARG_OF_PERICENTER = 232.1029
MEAN_ANOMALY   = 127.8975

EPHEMERIS_TYPE = 0
CLASSIFICATION_TYPE = U
NORAD_CAT_ID   = 21397
ELEMENT_SET_NO = 999
REV_AT_EPOCH   = 85329
BSTAR          = .15032883E-3
MEAN_MOTION_DOT = .2117E-4
MEAN_MOTION_DDOT = 0

CCSDS_OMM_VERS = 2.0
CREATION_DATE  = 
ORIGINATOR     = 

OBJECT_NAME    = COSMOS 2151
OBJECT_ID      = 1991-042A
CENTER_NAME    = EARTH
REF_FRAME      = TEME
TIME_SYSTEM    = UTC
MEAN_ELEMENT_THEORY = SGP/SGP4

EPOCH          = 2025-12-21T13:32:01.341888
MEAN_MOTION    = 14.99717390
ECCENTRICITY   = .00118303
INCLINATION    = 82.4963
RA_OF_ASC_NODE = 158.9992
ARG_OF_PERICENTER = 329.0326
MEAN_ANOMALY   = 31.0199

EPHEMERIS_TYPE = 0
CLASSIFICATION_TYPE = U
NORAD_CAT_ID   = 21422
ELEMENT_SET_NO = 999
REV_AT_EPOCH   = 85148
BSTAR          = .11657441E-3
MEAN_MOTION_DOT = .1467E-4
MEAN_MOTION_DDOT = 0

